[{"OBJECT_NAME":"FLOCK 4Q-36","OBJECT_ID":"2023-174U","EPOCH":"2026-03-04T04:33:54.766944","MEAN_MOTION":15.50801762,"ECCENTRICITY":0.00076764,"INCLINATION":97.39,"RA_OF_ASC_NODE":152.3134,"ARG_OF_PERICENTER":163.6157,"MEAN_ANOMALY":196.5345,"EPHEMERIS_TYPE":0,"CLASSIFICATION_TYPE":"U","NORAD_CAT_ID":58274,"ELEMENT_SET_NO":999,"REV_AT_EPOCH":12952,"BSTAR":0.00080698559,"MEAN_MOTION_DOT":0.00046684,"MEAN_MOTION_DDOT":0},{"OBJECT_NAME":"FLOCK 4Q-12","OBJECT_ID":"2023-174V","EPOCH":"2026-03-04T15:38:55.245120","MEAN_MOTION":15.51089998,"ECCENTRICITY":0.0005916,"INCLINATION":97.3891,"RA_OF_ASC_NODE":152.6706,"ARG_OF_PERICENTER":169.0175,"MEAN_ANOMALY":191.1207,"EPHEMERIS_TYPE":0,"CLASSIFICATION_TYPE":"U","NORAD_CAT_ID":58275,"ELEMENT_SET_NO":999,"REV_AT_EPOCH":12961,"BSTAR":0.0016793,"MEAN_MOTION_DOT":0.00098848,"MEAN_MOTION_DDOT":0},{"OBJECT_NAME":"FLOCK 4Q-28","OBJECT_ID":"2023-174AA","EPOCH":"2026-03-04T11:06:12.785472","MEAN_MOTION":15.48655603,"ECCENTRICITY":0.00072347,"INCLINATION":97.392,"RA_OF_ASC_NODE":151.72,"ARG_OF_PERICENTER":169.2466,"MEAN_ANOMALY":190.894,"EPHEMERIS_TYPE":0,"CLASSIFICATION_TYPE":"U","NORAD_CAT_ID":58280,"ELEMENT_SET_NO":999,"REV_AT_EPOCH":12950,"BSTAR":0.00089444539,"MEAN_MOTION_DOT":0.00047995,"MEAN_MOTION_DDOT":0},{"OBJECT_NAME":"FLOCK 4Q-27","OBJECT_ID":"2023-174AC","EPOCH":"2026-03-04T04:47:58.145856","MEAN_MOTION":15.48610638,"ECCENTRICITY":0.00067276,"INCLINATION":97.3862,"RA_OF_ASC_NODE":150.9953,"ARG_OF_PERICENTER":165.2224,"MEAN_ANOMALY":194.9224,"EPHEMERIS_TYPE":0,"CLASSIFICATION_TYPE":"U","NORAD_CAT_ID":58282,"ELEMENT_SET_NO":999,"REV_AT_EPOCH":12947,"BSTAR":0.00088699163,"MEAN_MOTION_DOT":0.0004751,"MEAN_MOTION_DDOT":0},{"OBJECT_NAME":"FLOCK 4Q-26","OBJECT_ID":"2023-174AE","EPOCH":"2026-03-04T04:20:17.679552","MEAN_MOTION":15.5041521,"ECCENTRICITY":0.0007224,"INCLINATION":97.3914,"RA_OF_ASC_NODE":152.3907,"ARG_OF_PERICENTER":167.6485,"MEAN_ANOMALY":192.4945,"EPHEMERIS_TYPE":0,"CLASSIFICATION_TYPE":"U","NORAD_CAT_ID":58284,"ELEMENT_SET_NO":999,"REV_AT_EPOCH":12952,"BSTAR":0.0008640022,"MEAN_MOTION_DOT":0.0004932,"MEAN_MOTION_DDOT":0},{"OBJECT_NAME":"FLOCK 4Q-31","OBJECT_ID":"2023-174AF","EPOCH":"2026-03-04T05:02:47.773824","MEAN_MOTION":15.49919177,"ECCENTRICITY":0.00078527,"INCLINATION":97.3956,"RA_OF_ASC_NODE":152.0637,"ARG_OF_PERICENTER":169.4529,"MEAN_ANOMALY":190.6889,"EPHEMERIS_TYPE":0,"CLASSIFICATION_TYPE":"U","NORAD_CAT_ID":58285,"ELEMENT_SET_NO":999,"REV_AT_EPOCH":12948,"BSTAR":0.0010122937,"MEAN_MOTION_DOT":0.00056863,"MEAN_MOTION_DDOT":0},{"OBJECT_NAME":"FLOCK 4Q-30","OBJECT_ID":"2023-174AG","EPOCH":"2026-03-04T04:46:35.686560","MEAN_MOTION":15.5014725,"ECCENTRICITY":0.00075747,"INCLINATION":97.3957,"RA_OF_ASC_NODE":152.2318,"ARG_OF_PERICENTER":165.744,"MEAN_ANOMALY":194.4027,"EPHEMERIS_TYPE":0,"CLASSIFICATION_TYPE":"U","NORAD_CAT_ID":58286,"ELEMENT_SET_NO":999,"REV_AT_EPOCH":12949,"BSTAR":0.00096407811,"MEAN_MOTION_DOT":0.00054567,"MEAN_MOTION_DDOT":0},{"OBJECT_NAME":"PELICAN-1","OBJECT_ID":"2023-174AS","EPOCH":"2026-03-04T06:14:42.909504","MEAN_MOTION":15.63414333,"ECCENTRICITY":0.00089122,"INCLINATION":97.3964,"RA_OF_ASC_NODE":157.77,"ARG_OF_PERICENTER":253.485,"MEAN_ANOMALY":106.543,"EPHEMERIS_TYPE":0,"CLASSIFICATION_TYPE":"U","NORAD_CAT_ID":58296,"ELEMENT_SET_NO":999,"REV_AT_EPOCH":12971,"BSTAR":0.0011452638,"MEAN_MOTION_DOT":0.00106769,"MEAN_MOTION_DDOT":0},{"OBJECT_NAME":"FLOCK 4Q-25","OBJECT_ID":"2023-174AZ","EPOCH":"2026-03-04T04:38:53.998656","MEAN_MOTION":15.55935413,"ECCENTRICITY":0.00052827,"INCLINATION":97.3875,"RA_OF_ASC_NODE":153.0681,"ARG_OF_PERICENTER":152.2523,"MEAN_ANOMALY":207.9014,"EPHEMERIS_TYPE":0,"CLASSIFICATION_TYPE":"U","NORAD_CAT_ID":58303,"ELEMENT_SET_NO":999,"REV_AT_EPOCH":12961,"BSTAR":0.0010125137,"MEAN_MOTION_DOT":0.00070694,"MEAN_MOTION_DDOT":0},{"OBJECT_NAME":"FLOCK 4Q-29","OBJECT_ID":"2023-174BA","EPOCH":"2026-03-04T19:20:17.784960","MEAN_MOTION":15.49149168,"ECCENTRICITY":0.0007896,"INCLINATION":97.3944,"RA_OF_ASC_NODE":152.4571,"ARG_OF_PERICENTER":156.1771,"MEAN_ANOMALY":203.9847,"EPHEMERIS_TYPE":0,"CLASSIFICATION_TYPE":"U","NORAD_CAT_ID":58304,"ELEMENT_SET_NO":999,"REV_AT_EPOCH":12956,"BSTAR":0.00068419,"MEAN_MOTION_DOT":0.00037286,"MEAN_MOTION_DDOT":0},{"OBJECT_NAME":"FLOCK 4Q-22","OBJECT_ID":"2023-174BC","EPOCH":"2026-03-04T17:02:04.637760","MEAN_MOTION":15.51713733,"ECCENTRICITY":0.0006704,"INCLINATION":97.3858,"RA_OF_ASC_NODE":152.527,"ARG_OF_PERICENTER":159.2881,"MEAN_ANOMALY":200.8644,"EPHEMERIS_TYPE":0,"CLASSIFICATION_TYPE":"U","NORAD_CAT_ID":58306,"ELEMENT_SET_NO":999,"REV_AT_EPOCH":12962,"BSTAR":0.00085544,"MEAN_MOTION_DOT":0.00051137,"MEAN_MOTION_DDOT":0},{"OBJECT_NAME":"FLOCK 4Q-23","OBJECT_ID":"2023-174BD","EPOCH":"2026-03-04T16:14:29.999904","MEAN_MOTION":15.54800137,"ECCENTRICITY":0.0006889,"INCLINATION":97.3967,"RA_OF_ASC_NODE":154.0247,"ARG_OF_PERICENTER":156.4024,"MEAN_ANOMALY":203.7547,"EPHEMERIS_TYPE":0,"CLASSIFICATION_TYPE":"U","NORAD_CAT_ID":58307,"ELEMENT_SET_NO":999,"REV_AT_EPOCH":12965,"BSTAR":0.00088929,"MEAN_MOTION_DOT":0.0005949,"MEAN_MOTION_DDOT":0},{"OBJECT_NAME":"FLOCK 4Q-33","OBJECT_ID":"2023-174BE","EPOCH":"2026-03-04T05:47:44.583936","MEAN_MOTION":15.50766394,"ECCENTRICITY":0.00074787,"INCLINATION":97.3888,"RA_OF_ASC_NODE":151.987,"ARG_OF_PERICENTER":151.4077,"MEAN_ANOMALY":208.7586,"EPHEMERIS_TYPE":0,"CLASSIFICATION_TYPE":"U","NORAD_CAT_ID":58308,"ELEMENT_SET_NO":999,"REV_AT_EPOCH":12953,"BSTAR":0.00085235013,"MEAN_MOTION_DOT":0.00049265,"MEAN_MOTION_DDOT":0},{"OBJECT_NAME":"FLOCK 4Q-35","OBJECT_ID":"2023-174BF","EPOCH":"2026-03-04T16:14:29.041728","MEAN_MOTION":15.49785625,"ECCENTRICITY":0.0008232,"INCLINATION":97.3908,"RA_OF_ASC_NODE":152.6056,"ARG_OF_PERICENTER":163.0473,"MEAN_ANOMALY":197.1055,"EPHEMERIS_TYPE":0,"CLASSIFICATION_TYPE":"U","NORAD_CAT_ID":58309,"ELEMENT_SET_NO":999,"REV_AT_EPOCH":12958,"BSTAR":0.00071741,"MEAN_MOTION_DOT":0.00040002,"MEAN_MOTION_DDOT":0},{"OBJECT_NAME":"FLOCK 4Q-34","OBJECT_ID":"2023-174BN","EPOCH":"2026-03-04T05:42:43.401312","MEAN_MOTION":15.54943889,"ECCENTRICITY":0.00068437,"INCLINATION":97.3871,"RA_OF_ASC_NODE":152.9757,"ARG_OF_PERICENTER":159.5044,"MEAN_ANOMALY":200.6486,"EPHEMERIS_TYPE":0,"CLASSIFICATION_TYPE":"U","NORAD_CAT_ID":58316,"ELEMENT_SET_NO":999,"REV_AT_EPOCH":12959,"BSTAR":0.0010554799,"MEAN_MOTION_DOT":0.00071099,"MEAN_MOTION_DDOT":0},{"OBJECT_NAME":"FLOCK 4Q-7","OBJECT_ID":"2023-174BQ","EPOCH":"2026-03-04T04:37:33.269088","MEAN_MOTION":15.4877684,"ECCENTRICITY":0.00080876,"INCLINATION":97.3944,"RA_OF_ASC_NODE":151.6404,"ARG_OF_PERICENTER":156.5642,"MEAN_ANOMALY":203.5978,"EPHEMERIS_TYPE":0,"CLASSIFICATION_TYPE":"U","NORAD_CAT_ID":58318,"ELEMENT_SET_NO":999,"REV_AT_EPOCH":12946,"BSTAR":0.00090783906,"MEAN_MOTION_DOT":0.0004894,"MEAN_MOTION_DDOT":0}]
