FLOCK 4Q-36             
1 58274U 23174U   26063.19021721  .00046684  00000+0  80699-3 0  9995
2 58274  97.3900 152.3134 0007676 163.6157 196.5345 15.50801762129527
FLOCK 4Q-12             
1 58275U 23174V   26063.65202830  .00098848  00000+0  16793-2 0  9991
2 58275  97.3891 152.6706 0005916 169.0175 191.1207 15.51089998129618
FLOCK 4Q-28             
1 58280U 23174AA  26063.46264798  .00047995  00000+0  89445-3 0  9999
2 58280  97.3920 151.7200 0007234 169.2466 190.8940 15.48655603129502
FLOCK 4Q-27             
1 58282U 23174AC  26063.19997854  .00047510  00000+0  88699-3 0  9990
2 58282  97.3862 150.9953 0006727 165.2224 194.9224 15.48610638129474
FLOCK 4Q-26             
1 58284U 23174AE  26063.18076018  .00049320  00000+0  86400-3 0  9990
2 58284  97.3914 152.3907 0007224 167.6485 192.4945 15.50415210129528
FLOCK 4Q-31             
1 58285U 23174AF  26063.21027516  .00056863  00000+0  10123-2 0  9992
2 58285  97.3956 152.0637 0007852 169.4529 190.6889 15.49919177129489
FLOCK 4Q-30             
1 58286U 23174AG  26063.19902415  .00054567  00000+0  96408-3 0  9990
2 58286  97.3957 152.2318 0007574 165.7440 194.4027 15.50147250129495
PELICAN-1               
1 58296U 23174AS  26063.26021886  .00106769  00000+0  11453-2 0  9991
2 58296  97.3964 157.7700 0008912 253.4850 106.5430 15.63414333129716
FLOCK 4Q-25             
1 58303U 23174AZ  26063.19368054  .00070694  00000+0  10125-2 0  9995
2 58303  97.3875 153.0681 0005282 152.2523 207.9014 15.55935413129614
FLOCK 4Q-29             
1 58304U 23174BA  26063.80576140  .00037286  00000+0  68419-3 0  9991
2 58304  97.3944 152.4571 0007896 156.1771 203.9847 15.49149168129565
FLOCK 4Q-22             
1 58306U 23174BC  26063.70977590  .00051137  00000+0  85544-3 0  9995
2 58306  97.3858 152.5270 0006704 159.2881 200.8644 15.51713733129627
FLOCK 4Q-23             
1 58307U 23174BD  26063.67673611  .00059490  00000+0  88929-3 0  9999
2 58307  97.3967 154.0247 0006889 156.4024 203.7547 15.54800137129657
FLOCK 4Q-33             
1 58308U 23174BE  26063.24148824  .00049265  00000+0  85235-3 0  9992
2 58308  97.3888 151.9870 0007478 151.4077 208.7586 15.50766394129533
FLOCK 4Q-35             
1 58309U 23174BF  26063.67672502  .00040002  00000+0  71741-3 0  9992
2 58309  97.3908 152.6056 0008232 163.0473 197.1055 15.49785625129582
FLOCK 4Q-34             
1 58316U 23174BN  26063.23800233  .00071099  00000+0  10555-2 0  9991
2 58316  97.3871 152.9757 0006843 159.5044 200.6486 15.54943889129593
FLOCK 4Q-7              
1 58318U 23174BQ  26063.19274617  .00048940  00000+0  90784-3 0  9991
2 58318  97.3944 151.6404 0008087 156.5642 203.5978 15.48776840129462
